{"type": "FeatureCollection", "features": [ {"type": "Feature", "properties": {"norad_id": 66756, "name": "TRANSPORTER-15 CU", "group": "last-30-days", "lat": -81.75666051243634, "lon": -176.88823809037325, "alt_km": 519.7255301906962, "timestamp": "2025-12-21T22:41:40.165017+00:00", "meta": {"OBJECT_NAME": "TRANSPORTER-15 CU", "OBJECT_ID": "2025-276CU", "EPOCH": "2025-12-21T10:26:57.841152", "MEAN_MOTION": 15.17926464, "ECCENTRICITY": 0.00014605, "INCLINATION": 97.4421, "RA_OF_ASC_NODE": 67.0679, "ARG_OF_PERICENTER": 162.4633, "MEAN_ANOMALY": 197.6651, "EPHEMERIS_TYPE": 0, "CLASSIFICATION_TYPE": "U", "NORAD_CAT_ID": 66756, "ELEMENT_SET_NO": 999, "REV_AT_EPOCH": 344, "BSTAR": 0.00038465667, "MEAN_MOTION_DOT": 7.74e-05, "MEAN_MOTION_DDOT": 0}, "tle": {"line1": "1 66756U 25276CU  25355.43539168  .00007740  00000+0  38466-3 0  9998", "line2": "2 66756  97.4421  67.0679 0001460 162.4633 197.6651 15.17926464  3441"}}, "geometry": {"type": "Point", "coordinates": [-176.88823809037325, -81.75666051243634]}}, {"type": "Feature", "properties": {"norad_id": 66757, "name": "TRANSPORTER-15 CV", "group": "last-30-days", "lat": -81.71118157588629, "lon": 131.39009862229145, "alt_km": 519.5404932704696, "timestamp": "2025-12-21T22:41:40.165030+00:00", "meta": {"OBJECT_NAME": "TRANSPORTER-15 CV", "OBJECT_ID": "2025-276CV", "EPOCH": "2025-12-21T10:25:07.235328", "MEAN_MOTION": 15.1804399, "ECCENTRICITY": 0.00015714, "INCLINATION": 97.4431, "RA_OF_ASC_NODE": 67.0725, "ARG_OF_PERICENTER": 161.1168, "MEAN_ANOMALY": 199.0124, "EPHEMERIS_TYPE": 0, "CLASSIFICATION_TYPE": "U", "NORAD_CAT_ID": 66757, "ELEMENT_SET_NO": 999, "REV_AT_EPOCH": 344, "BSTAR": 0.00041298337, "MEAN_MOTION_DOT": 8.344e-05, "MEAN_MOTION_DDOT": 0}, "tle": {"line1": "1 66757U 25276CV  25355.43411152  .00008344  00000+0  41298-3 0  9999", "line2": "2 66757  97.4431  67.0725 0001571 161.1168 199.0124 15.18043990  3443"}}, "geometry": {"type": "Point", "coordinates": [131.39009862229145, -81.71118157588629]}}, {"type": "Feature", "properties": {"norad_id": 66758, "name": "TRANSPORTER-15 CW", "group": "last-30-days", "lat": -80.97808684139804, "lon": 122.95626679491915, "alt_km": 519.6465340668037, "timestamp": "2025-12-21T22:41:40.165041+00:00", "meta": {"OBJECT_NAME": "TRANSPORTER-15 CW", "OBJECT_ID": "2025-276CW", "EPOCH": "2025-12-21T10:24:44.194176", "MEAN_MOTION": 15.18051806, "ECCENTRICITY": 0.00011747, "INCLINATION": 97.44, "RA_OF_ASC_NODE": 67.0636, "ARG_OF_PERICENTER": 141.4901, "MEAN_ANOMALY": 218.6417, "EPHEMERIS_TYPE": 0, "CLASSIFICATION_TYPE": "U", "NORAD_CAT_ID": 66758, "ELEMENT_SET_NO": 999, "REV_AT_EPOCH": 344, "BSTAR": 0.00039925455, "MEAN_MOTION_DOT": 8.066e-05, "MEAN_MOTION_DDOT": 0}, "tle": {"line1": "1 66758U 25276CW  25355.43384484  .00008066  00000+0  39925-3 0  9992", "line2": "2 66758  97.4400  67.0636 0001174 141.4901 218.6417 15.18051806  3444"}}, "geometry": {"type": "Point", "coordinates": [122.95626679491915, -80.97808684139804]}}, {"type": "Feature", "properties": {"norad_id": 66759, "name": "TRANSPORTER-15 CX", "group": "last-30-days", "lat": -74.52302858968235, "lon": 95.72170348864185, "alt_km": 519.5163621506772, "timestamp": "2025-12-21T22:41:40.165051+00:00", "meta": {"OBJECT_NAME": "TRANSPORTER-15 CX", "OBJECT_ID": "2025-276CX", "EPOCH": "2025-12-21T11:57:28.073376", "MEAN_MOTION": 15.18187097, "ECCENTRICITY": 0.00016082, "INCLINATION": 97.4388, "RA_OF_ASC_NODE": 67.1261, "ARG_OF_PERICENTER": 142.2831, "MEAN_ANOMALY": 217.8516, "EPHEMERIS_TYPE": 0, "CLASSIFICATION_TYPE": "U", "NORAD_CAT_ID": 66759, "ELEMENT_SET_NO": 999, "REV_AT_EPOCH": 345, "BSTAR": 0.00042918441, "MEAN_MOTION_DOT": 8.71e-05, "MEAN_MOTION_DDOT": 0}, "tle": {"line1": "1 66759U 25276CX  25355.49824159  .00008710  00000+0  42918-3 0  9999", "line2": "2 66759  97.4388  67.1261 0001608 142.2831 217.8516 15.18187097  3452"}}, "geometry": {"type": "Point", "coordinates": [95.72170348864185, -74.52302858968235]}}, {"type": "Feature", "properties": {"norad_id": 66760, "name": "TRANSPORTER-15 CY", "group": "last-30-days", "lat": -72.63425001407762, "lon": 92.2744368620389, "alt_km": 519.7397940546689, "timestamp": "2025-12-21T22:41:40.165060+00:00", "meta": {"OBJECT_NAME": "TRANSPORTER-15 CY", "OBJECT_ID": "2025-276CY", "EPOCH": "2025-12-21T11:56:53.896128", "MEAN_MOTION": 15.18170606, "ECCENTRICITY": 0.0001569, "INCLINATION": 97.4404, "RA_OF_ASC_NODE": 67.1325, "ARG_OF_PERICENTER": 116.1053, "MEAN_ANOMALY": 244.0343, "EPHEMERIS_TYPE": 0, "CLASSIFICATION_TYPE": "U", "NORAD_CAT_ID": 66760, "ELEMENT_SET_NO": 999, "REV_AT_EPOCH": 345, "BSTAR": 0.00040785043, "MEAN_MOTION_DOT": 8.27e-05, "MEAN_MOTION_DDOT": 0}, "tle": {"line1": "1 66760U 25276CY  25355.49784602  .00008270  00000+0  40785-3 0  9990", "line2": "2 66760  97.4404  67.1325 0001569 116.1053 244.0343 15.18170606  3454"}}, "geometry": {"type": "Point", "coordinates": [92.2744368620389, -72.63425001407762]}}, {"type": "Feature", "properties": {"norad_id": 66761, "name": "TRANSPORTER-15 CZ", "group": "last-30-days", "lat": -60.57627858153621, "lon": 80.97499851077966, "alt_km": 518.9880284954197, "timestamp": "2025-12-21T22:41:40.165072+00:00", "meta": {"OBJECT_NAME": "TRANSPORTER-15 CZ", "OBJECT_ID": "2025-276CZ", "EPOCH": "2025-12-21T11:53:37.726656", "MEAN_MOTION": 15.18435716, "ECCENTRICITY": 0.0001911, "INCLINATION": 97.4404, "RA_OF_ASC_NODE": 67.1348, "ARG_OF_PERICENTER": 130.1972, "MEAN_ANOMALY": 229.9429, "EPHEMERIS_TYPE": 0, "CLASSIFICATION_TYPE": "U", "NORAD_CAT_ID": 66761, "ELEMENT_SET_NO": 999, "REV_AT_EPOCH": 345, "BSTAR": 0.0011159421, "MEAN_MOTION_DOT": 0.00022962, "MEAN_MOTION_DDOT": 0}, "tle": {"line1": "1 66761U 25276CZ  25355.49557554  .00022962  00000+0  11159-2 0  9991", "line2": "2 66761  97.4404  67.1348 0001911 130.1972 229.9429 15.18435716  3450"}}, "geometry": {"type": "Point", "coordinates": [80.97499851077966, -60.57627858153621]}}, {"type": "Feature", "properties": {"norad_id": 66762, "name": "HYDROGNSS-1", "group": "last-30-days", "lat": -36.031057401728994, "lon": -117.90918435038725, "alt_km": 520.0335065137451, "timestamp": "2025-12-21T22:41:40.165084+00:00", "meta": {"OBJECT_NAME": "HYDROGNSS-1", "OBJECT_ID": "2025-276DA", "EPOCH": "2025-12-21T12:14:50.704512", "MEAN_MOTION": 15.17290199, "ECCENTRICITY": 9.336e-05, "INCLINATION": 97.4414, "RA_OF_ASC_NODE": 67.1186, "ARG_OF_PERICENTER": 273.2762, "MEAN_ANOMALY": 86.8364, "EPHEMERIS_TYPE": 0, "CLASSIFICATION_TYPE": "U", "NORAD_CAT_ID": 66762, "ELEMENT_SET_NO": 999, "REV_AT_EPOCH": 345, "BSTAR": 0.00037462271, "MEAN_MOTION_DOT": 7.4e-05, "MEAN_MOTION_DDOT": 0}, "tle": {"line1": "1 66762U 25276DA  25355.51030908  .00007400  00000+0  37462-3 0  9990", "line2": "2 66762  97.4414  67.1186 0000933 273.2762  86.8364 15.17290199  3452"}}, "geometry": {"type": "Point", "coordinates": [-117.90918435038725, -36.031057401728994]}}, {"type": "Feature", "properties": {"norad_id": 66763, "name": "HYDROGNSS-2", "group": "last-30-days", "lat": -46.439408464695205, "lon": -120.34582421205945, "alt_km": 519.5964750034491, "timestamp": "2025-12-21T22:41:40.165094+00:00", "meta": {"OBJECT_NAME": "HYDROGNSS-2", "OBJECT_ID": "2025-276DB", "EPOCH": "2025-12-21T10:37:08.615712", "MEAN_MOTION": 15.1741085, "ECCENTRICITY": 0.00013898, "INCLINATION": 97.4419, "RA_OF_ASC_NODE": 67.0602, "ARG_OF_PERICENTER": 249.0291, "MEAN_ANOMALY": 111.0795, "EPHEMERIS_TYPE": 0, "CLASSIFICATION_TYPE": "U", "NORAD_CAT_ID": 66763, "ELEMENT_SET_NO": 999, "REV_AT_EPOCH": 344, "BSTAR": 0.00014847818, "MEAN_MOTION_DOT": 2.901e-05, "MEAN_MOTION_DDOT": 0}, "tle": {"line1": "1 66763U 25276DB  25355.44246083  .00002901  00000+0  14848-3 0  9990", "line2": "2 66763  97.4419  67.0602 0001389 249.0291 111.0795 15.17410850  3440"}}, "geometry": {"type": "Point", "coordinates": [-120.34582421205945, -46.439408464695205]}}, {"type": "Feature", "properties": {"norad_id": 66764, "name": "TRANSPORTER-15 DC", "group": "last-30-days", "lat": -68.72412762416023, "lon": -132.0540181897647, "alt_km": 519.216391240443, "timestamp": "2025-12-21T22:41:40.165106+00:00", "meta": {"OBJECT_NAME": "TRANSPORTER-15 DC", "OBJECT_ID": "2025-276DC", "EPOCH": "2025-12-21T10:31:11.288640", "MEAN_MOTION": 15.17681114, "ECCENTRICITY": 0.00019674, "INCLINATION": 97.4415, "RA_OF_ASC_NODE": 67.06, "ARG_OF_PERICENTER": 203.3782, "MEAN_ANOMALY": 156.7363, "EPHEMERIS_TYPE": 0, "CLASSIFICATION_TYPE": "U", "NORAD_CAT_ID": 66764, "ELEMENT_SET_NO": 999, "REV_AT_EPOCH": 344, "BSTAR": 0.00036535898, "MEAN_MOTION_DOT": 7.296e-05, "MEAN_MOTION_DDOT": 0}, "tle": {"line1": "1 66764U 25276DC  25355.43832510  .00007296  00000+0  36536-3 0  9996", "line2": "2 66764  97.4415  67.0600 0001967 203.3782 156.7363 15.17681114  3445"}}, "geometry": {"type": "Point", "coordinates": [-132.0540181897647, -68.72412762416023]}}, {"type": "Feature", "properties": {"norad_id": 66765, "name": "TRANSPORTER-15 DD", "group": "last-30-days", "lat": -43.58150992745524, "lon": 74.73890952979691, "alt_km": 517.6804329939014, "timestamp": "2025-12-21T22:41:40.165116+00:00", "meta": {"OBJECT_NAME": "TRANSPORTER-15 DD", "OBJECT_ID": "2025-276DD", "EPOCH": "2025-12-21T11:49:08.191488", "MEAN_MOTION": 15.18687569, "ECCENTRICITY": 0.00017743, "INCLINATION": 97.4427, "RA_OF_ASC_NODE": 67.1462, "ARG_OF_PERICENTER": 121.6923, "MEAN_ANOMALY": 238.4484, "EPHEMERIS_TYPE": 0, "CLASSIFICATION_TYPE": "U", "NORAD_CAT_ID": 66765, "ELEMENT_SET_NO": 999, "REV_AT_EPOCH": 345, "BSTAR": 0.00056092165, "MEAN_MOTION_DOT": 0.00011574, "MEAN_MOTION_DDOT": 0}, "tle": {"line1": "1 66765U 25276DD  25355.49245592  .00011574  00000+0  56092-3 0  9994", "line2": "2 66765  97.4427  67.1462 0001774 121.6923 238.4484 15.18687569  3455"}}, "geometry": {"type": "Point", "coordinates": [74.73890952979691, -43.58150992745524]}}]}